[{"OBJECT_NAME":"FLOCK 4G-5","OBJECT_ID":"2025-009BG","EPOCH":"2026-03-09T10:57:11.608704","MEAN_MOTION":15.28679529,"ECCENTRICITY":0.00020946,"INCLINATION":97.4058,"RA_OF_ASC_NODE":151.2478,"ARG_OF_PERICENTER":314.5072,"MEAN_ANOMALY":45.5996,"EPHEMERIS_TYPE":0,"CLASSIFICATION_TYPE":"U","NORAD_CAT_ID":62663,"ELEMENT_SET_NO":999,"REV_AT_EPOCH":6369,"BSTAR":0.00040688068,"MEAN_MOTION_DOT":0.00011278,"MEAN_MOTION_DDOT":0},{"OBJECT_NAME":"STARLINK-33820","OBJECT_ID":"2025-076R","EPOCH":"2026-03-09T02:07:40.280160","MEAN_MOTION":15.2759155,"ECCENTRICITY":0.00017722,"INCLINATION":42.9942,"RA_OF_ASC_NODE":324.6421,"ARG_OF_PERICENTER":222.3018,"MEAN_ANOMALY":137.7697,"EPHEMERIS_TYPE":0,"CLASSIFICATION_TYPE":"U","NORAD_CAT_ID":63584,"ELEMENT_SET_NO":999,"REV_AT_EPOCH":5174,"BSTAR":0.0010224918,"MEAN_MOTION_DOT":0.00027992,"MEAN_MOTION_DDOT":0}]
